[Satellite]
VERSION=1.1
NAME=MOLNIYA 3-47
NICKNAME=MOLNIYA 3-47
TLE1=1 23642U 95042A   20157.03017121 -.00000505  00000-0  00000+0 0  9997
TLE2=2 23642  63.2564 157.2906 6822530 288.3559  12.5023  2.01982669182110
STATUS=0
